JILIN-1 GAOFEN 03D51    
1 54252U 22155B   26201.94807368  .00047082  00000+0  47359-3 0  9990
2 54252  97.6266 349.4411 0004657 211.0512 149.0473 15.65303316205026
JILIN-1 GAOFEN 03D53    
1 54253U 22155C   26201.90109691  .00025827  00000+0  39061-3 0  9995
2 54253  97.6257 344.4948 0005210 227.5410 132.5404 15.54670345204726
JILIN-1 GAOFEN 03D52    
1 54255U 22155E   26201.94688991  .00040035  00000+0  45161-3 0  9992
2 54255  97.6240 347.6223 0004057 224.5880 135.5052 15.62410533204976
JILIN-1 GAOFEN 03D50    
1 54690U 22167J   26201.96471610  .00007741  00000+0  22947-3 0  9992
2 54690  97.6865  11.2099 0004706   2.0795 358.0466 15.35135165200536
JILIN-1 GAOFEN 03D47    
1 54692U 22167L   26201.90609906  .00006784  00000+0  20600-3 0  9999
2 54692  97.6962  12.8878 0007291  10.2729 349.8661 15.34412075200518
JILIN-1 GAOFEN 03D49    
1 54694U 22167N   26201.90798718  .00008650  00000+0  23270-3 0  9991
2 54694  97.6839  13.5706 0005600  31.6400 328.5180 15.38125859200678
JILIN-1 GAOFEN 03D48    
1 54695U 22167P   26201.95450735  .00008056  00000+0  23315-3 0  9991
2 54695  97.6911  12.9302 0005901  10.7344 349.4024 15.35868514200571
JILIN GAOFEN OBJECT A   
1 68691U 26080A   26198.71960546  .00001863  00000+0  12114-3 0  9999
2 68691  97.6607 274.1951 0010995 325.9072  34.1449 15.09211185 14269
JILIN GAOFEN OBJECT B   
1 68692U 26080B   26201.88519398  .00003523  00000+0  22685-3 0  9997
2 68692  97.6582 277.3660 0015525 292.2430  67.7152 15.08932608 14747
JILIN GAOFEN OBJECT C   
1 68693U 26080C   26201.70298639  .00003108  00000+0  20075-3 0  9991
2 68693  97.6586 277.1543 0013162 294.4276  65.5579 15.08925561 14713
JILIN GAOFEN OBJECT D   
1 68694U 26080D   26201.95211091  .00003495  00000+0  22467-3 0  9992
2 68694  97.6647 277.5119 0016121 304.0625  55.9072 15.08991757 14732
JILIN GAOFEN OBJECT E   
1 68695U 26080E   26201.93394336  .00002986  00000+0  19293-3 0  9992
2 68695  97.6628 277.5125 0013357 315.1231  44.8917 15.08952552 14716
JILIN GAOFEN OBJECT F   
1 68696U 26080F   26201.93302610  .00002928  00000+0  18940-3 0  9991
2 68696  97.6599 277.4777 0012026 317.9843  42.0462 15.08936354 14714
JILIN GAOFEN OBJECT G   
1 68697U 26080G   26201.91913626  .00002737  00000+0  17724-3 0  9992
2 68697  97.6642 277.5514 0014286 314.1575  45.8478 15.08926209 14711
JILIN GAOFEN OBJECT H   
1 68698U 26080H   26201.71806517  .00002199  00000+0  14315-3 0  9996
2 68698  97.6623 277.3399 0014578 316.7658  43.2425 15.08952027 14681
