{"fetched_at":"2026-07-21T07:06:58.342Z","source":"https://celestrak.org/NORAD/elements/gp.php?NAME=JILIN&FORMAT=JSON","constellation":"jilin-1-gaofen","records":[{"OBJECT_NAME":"JILIN-1 GAOFEN 03D51","OBJECT_ID":"2022-155B","EPOCH":"2026-07-20T22:45:13.565952","CLASSIFICATION_TYPE":"U","MEAN_MOTION":15.65303316,"ECCENTRICITY":0.00046572,"INCLINATION":97.6266,"RA_OF_ASC_NODE":349.4411,"ARG_OF_PERICENTER":211.0512,"MEAN_ANOMALY":149.0473,"EPHEMERIS_TYPE":0,"NORAD_CAT_ID":54252,"ELEMENT_SET_NO":999,"REV_AT_EPOCH":20502,"BSTAR":0.00047358862,"MEAN_MOTION_DOT":0.00047082,"MEAN_MOTION_DDOT":0},{"OBJECT_NAME":"JILIN-1 GAOFEN 03D53","OBJECT_ID":"2022-155C","EPOCH":"2026-07-20T21:37:34.773024","CLASSIFICATION_TYPE":"U","MEAN_MOTION":15.54670345,"ECCENTRICITY":0.00052104,"INCLINATION":97.6257,"RA_OF_ASC_NODE":344.4948,"ARG_OF_PERICENTER":227.541,"MEAN_ANOMALY":132.5404,"EPHEMERIS_TYPE":0,"NORAD_CAT_ID":54253,"ELEMENT_SET_NO":999,"REV_AT_EPOCH":20472,"BSTAR":0.00039060764,"MEAN_MOTION_DOT":0.00025827,"MEAN_MOTION_DDOT":0},{"OBJECT_NAME":"JILIN-1 GAOFEN 03D52","OBJECT_ID":"2022-155E","EPOCH":"2026-07-20T22:43:31.288224","CLASSIFICATION_TYPE":"U","MEAN_MOTION":15.62410533,"ECCENTRICITY":0.00040579,"INCLINATION":97.624,"RA_OF_ASC_NODE":347.6223,"ARG_OF_PERICENTER":224.588,"MEAN_ANOMALY":135.5052,"EPHEMERIS_TYPE":0,"NORAD_CAT_ID":54255,"ELEMENT_SET_NO":999,"REV_AT_EPOCH":20497,"BSTAR":0.00045160785,"MEAN_MOTION_DOT":0.00040035,"MEAN_MOTION_DDOT":0},{"OBJECT_NAME":"JILIN-1 GAOFEN 03D50","OBJECT_ID":"2022-167J","EPOCH":"2026-07-20T23:09:11.471040","CLASSIFICATION_TYPE":"U","MEAN_MOTION":15.35135165,"ECCENTRICITY":0.00047067,"INCLINATION":97.6865,"RA_OF_ASC_NODE":11.2099,"ARG_OF_PERICENTER":2.0795,"MEAN_ANOMALY":358.0466,"EPHEMERIS_TYPE":0,"NORAD_CAT_ID":54690,"ELEMENT_SET_NO":999,"REV_AT_EPOCH":20053,"BSTAR":0.00022946815,"MEAN_MOTION_DOT":0.00007741,"MEAN_MOTION_DDOT":0},{"OBJECT_NAME":"JILIN-1 GAOFEN 03D47","OBJECT_ID":"2022-167L","EPOCH":"2026-07-20T21:44:46.958784","CLASSIFICATION_TYPE":"U","MEAN_MOTION":15.34412075,"ECCENTRICITY":0.00072913,"INCLINATION":97.6962,"RA_OF_ASC_NODE":12.8878,"ARG_OF_PERICENTER":10.2729,"MEAN_ANOMALY":349.8661,"EPHEMERIS_TYPE":0,"NORAD_CAT_ID":54692,"ELEMENT_SET_NO":999,"REV_AT_EPOCH":20051,"BSTAR":0.00020600425,"MEAN_MOTION_DOT":0.00006784,"MEAN_MOTION_DDOT":0},{"OBJECT_NAME":"JILIN-1 GAOFEN 03D49","OBJECT_ID":"2022-167N","EPOCH":"2026-07-20T21:47:30.092352","CLASSIFICATION_TYPE":"U","MEAN_MOTION":15.38125859,"ECCENTRICITY":0.00056,"INCLINATION":97.6839,"RA_OF_ASC_NODE":13.5706,"ARG_OF_PERICENTER":31.64,"MEAN_ANOMALY":328.518,"EPHEMERIS_TYPE":0,"NORAD_CAT_ID":54694,"ELEMENT_SET_NO":999,"REV_AT_EPOCH":20067,"BSTAR":0.00023269854,"MEAN_MOTION_DOT":0.0000865,"MEAN_MOTION_DDOT":0},{"OBJECT_NAME":"JILIN-1 GAOFEN 03D48","OBJECT_ID":"2022-167P","EPOCH":"2026-07-20T22:54:29.435040","CLASSIFICATION_TYPE":"U","MEAN_MOTION":15.35868514,"ECCENTRICITY":0.00059013,"INCLINATION":97.6911,"RA_OF_ASC_NODE":12.9302,"ARG_OF_PERICENTER":10.7344,"MEAN_ANOMALY":349.4024,"EPHEMERIS_TYPE":0,"NORAD_CAT_ID":54695,"ELEMENT_SET_NO":999,"REV_AT_EPOCH":20057,"BSTAR":0.00023315401,"MEAN_MOTION_DOT":0.00008056,"MEAN_MOTION_DDOT":0},{"OBJECT_NAME":"JILIN GAOFEN OBJECT A","OBJECT_ID":"2026-080A","EPOCH":"2026-07-17T17:16:13.911744","CLASSIFICATION_TYPE":"U","MEAN_MOTION":15.09211185,"ECCENTRICITY":0.00109955,"INCLINATION":97.6607,"RA_OF_ASC_NODE":274.1951,"ARG_OF_PERICENTER":325.9072,"MEAN_ANOMALY":34.1449,"EPHEMERIS_TYPE":0,"NORAD_CAT_ID":68691,"ELEMENT_SET_NO":999,"REV_AT_EPOCH":1426,"BSTAR":0.00012113513,"MEAN_MOTION_DOT":0.00001863,"MEAN_MOTION_DDOT":0},{"OBJECT_NAME":"JILIN GAOFEN OBJECT B","OBJECT_ID":"2026-080B","EPOCH":"2026-07-20T21:14:40.759872","CLASSIFICATION_TYPE":"U","MEAN_MOTION":15.08932608,"ECCENTRICITY":0.00155253,"INCLINATION":97.6582,"RA_OF_ASC_NODE":277.366,"ARG_OF_PERICENTER":292.243,"MEAN_ANOMALY":67.7152,"EPHEMERIS_TYPE":0,"NORAD_CAT_ID":68692,"ELEMENT_SET_NO":999,"REV_AT_EPOCH":1474,"BSTAR":0.00022684548,"MEAN_MOTION_DOT":0.00003523,"MEAN_MOTION_DDOT":0},{"OBJECT_NAME":"JILIN GAOFEN OBJECT C","OBJECT_ID":"2026-080C","EPOCH":"2026-07-20T16:52:18.024096","CLASSIFICATION_TYPE":"U","MEAN_MOTION":15.08925561,"ECCENTRICITY":0.00131621,"INCLINATION":97.6586,"RA_OF_ASC_NODE":277.1543,"ARG_OF_PERICENTER":294.4276,"MEAN_ANOMALY":65.5579,"EPHEMERIS_TYPE":0,"NORAD_CAT_ID":68693,"ELEMENT_SET_NO":999,"REV_AT_EPOCH":1471,"BSTAR":0.00020074535,"MEAN_MOTION_DOT":0.00003108,"MEAN_MOTION_DDOT":0},{"OBJECT_NAME":"JILIN GAOFEN OBJECT D","OBJECT_ID":"2026-080D","EPOCH":"2026-07-20T22:51:02.382624","CLASSIFICATION_TYPE":"U","MEAN_MOTION":15.08991757,"ECCENTRICITY":0.00161214,"INCLINATION":97.6647,"RA_OF_ASC_NODE":277.5119,"ARG_OF_PERICENTER":304.0625,"MEAN_ANOMALY":55.9072,"EPHEMERIS_TYPE":0,"NORAD_CAT_ID":68694,"ELEMENT_SET_NO":999,"REV_AT_EPOCH":1473,"BSTAR":0.00022466572,"MEAN_MOTION_DOT":0.00003495,"MEAN_MOTION_DDOT":0},{"OBJECT_NAME":"JILIN GAOFEN OBJECT E","OBJECT_ID":"2026-080E","EPOCH":"2026-07-20T22:24:52.706304","CLASSIFICATION_TYPE":"U","MEAN_MOTION":15.08952552,"ECCENTRICITY":0.00133579,"INCLINATION":97.6628,"RA_OF_ASC_NODE":277.5125,"ARG_OF_PERICENTER":315.1231,"MEAN_ANOMALY":44.8917,"EPHEMERIS_TYPE":0,"NORAD_CAT_ID":68695,"ELEMENT_SET_NO":999,"REV_AT_EPOCH":1471,"BSTAR":0.00019293424,"MEAN_MOTION_DOT":0.00002986,"MEAN_MOTION_DDOT":0},{"OBJECT_NAME":"JILIN GAOFEN OBJECT F","OBJECT_ID":"2026-080F","EPOCH":"2026-07-20T22:23:33.455040","CLASSIFICATION_TYPE":"U","MEAN_MOTION":15.08936354,"ECCENTRICITY":0.00120262,"INCLINATION":97.6599,"RA_OF_ASC_NODE":277.4777,"ARG_OF_PERICENTER":317.9843,"MEAN_ANOMALY":42.0462,"EPHEMERIS_TYPE":0,"NORAD_CAT_ID":68696,"ELEMENT_SET_NO":999,"REV_AT_EPOCH":1471,"BSTAR":0.00018940133,"MEAN_MOTION_DOT":0.00002928,"MEAN_MOTION_DDOT":0},{"OBJECT_NAME":"JILIN GAOFEN OBJECT G","OBJECT_ID":"2026-080G","EPOCH":"2026-07-20T22:03:33.372864","CLASSIFICATION_TYPE":"U","MEAN_MOTION":15.08926209,"ECCENTRICITY":0.00142861,"INCLINATION":97.6642,"RA_OF_ASC_NODE":277.5514,"ARG_OF_PERICENTER":314.1575,"MEAN_ANOMALY":45.8478,"EPHEMERIS_TYPE":0,"NORAD_CAT_ID":68697,"ELEMENT_SET_NO":999,"REV_AT_EPOCH":1471,"BSTAR":0.00017723895,"MEAN_MOTION_DOT":0.00002737,"MEAN_MOTION_DDOT":0},{"OBJECT_NAME":"JILIN GAOFEN OBJECT H","OBJECT_ID":"2026-080H","EPOCH":"2026-07-20T17:14:00.830688","CLASSIFICATION_TYPE":"U","MEAN_MOTION":15.08952027,"ECCENTRICITY":0.0014578,"INCLINATION":97.6623,"RA_OF_ASC_NODE":277.3399,"ARG_OF_PERICENTER":316.7658,"MEAN_ANOMALY":43.2425,"EPHEMERIS_TYPE":0,"NORAD_CAT_ID":68698,"ELEMENT_SET_NO":999,"REV_AT_EPOCH":1468,"BSTAR":0.00014314856,"MEAN_MOTION_DOT":0.00002199,"MEAN_MOTION_DDOT":0}]}
